OBJECT_NAME,OBJECT_ID,EPOCH,MEAN_MOTION,ECCENTRICITY,INCLINATION,RA_OF_ASC_NODE,ARG_OF_PERICENTER,MEAN_ANOMALY,EPHEMERIS_TYPE,CLASSIFICATION_TYPE,NORAD_CAT_ID,ELEMENT_SET_NO,REV_AT_EPOCH,BSTAR,MEAN_MOTION_DOT,MEAN_MOTION_DDOT
SL-14 R/B,1990-018B,2026-06-17T16:28:31.728576,14.82216346,.001747,82.5210,129.6408,120.2044,240.0903,0,U,20511,999,93739,.34902E-4,.303E-5,0
HST,1990-037B,2026-06-17T03:26:13.909056,15.30747004,.00018155,28.4720,80.8753,141.8279,218.2446,0,U,20580,999,78856,.17615563E-3,.562E-4,0
SL-16 R/B,1990-046B,2026-06-17T19:06:54.461952,14.15026839,.001329,71.0000,87.6684,160.8534,199.3091,0,U,20625,999,86255,.70872E-4,.9E-6,0
COSMOS 2084,1990-055A,2026-06-17T19:00:12.894624,15.06118169,.0005609,62.7899,354.0272,279.9376,80.1091,0,U,20663,999,95139,.12802E-3,.168E-4,0
SL-6 R/B(2),1990-055D,2026-06-17T15:32:41.490816,15.04004273,.0040738,62.7823,273.8094,5.2182,354.9333,0,U,20666,999,95322,.99619E-4,.1199E-4,0
SL-8 R/B,1990-078B,2026-06-17T11:07:04.545984,14.92330883,.03508611,82.9016,161.3960,37.5373,324.9789,0,U,20775,999,82416,.57730464E-3,.20481E-3,0
SL-8 R/B,1991-006B,2026-06-17T18:55:58.528704,13.77505904,.0023717,82.9425,95.5861,112.9578,304.2368,0,U,21088,999,77785,.42989E-4,.58E-6,0
OKEAN-3,1991-039A,2026-06-17T17:41:06.105408,15.05326451,.0014015,82.5161,239.8482,356.0579,4.0535,0,U,21397,999,88008,.15948E-3,.2314E-4,0
COSMOS 2151,1991-042A,2026-06-17T19:02:21.424128,15.00439789,.0013812,82.4960,347.0959,82.2396,278.0396,0,U,21422,999,87820,.9429E-4,.1215E-4,0
SL-14 R/B,1991-042B,2026-06-17T19:52:32.484864,14.81902846,.0015404,82.4927,126.2944,272.5277,87.4173,0,U,21423,999,86790,.34938E-4,.3E-5,0
ERS-1,1991-050A,2026-06-17T15:37:57.925632,14.39517854,.0030717,98.7797,189.3607,265.5054,94.2623,0,U,21574,999,83011,.78668E-4,.2E-5,0
ARIANE 40 R/B,1991-050F,2026-06-17T17:49:07.752576,14.42957352,.0004272,98.1876,217.1377,120.3661,239.7952,0,U,21610,999,83342,.76081E-4,.213E-5,0
INTERCOSMOS 25,1991-086A,2026-06-17T14:34:06.063168,12.12196119,.1484002,82.6052,249.5558,261.4877,81.5862,0,U,21819,999,50879,.1419E-3,.712E-5,0
SL-8 R/B,1992-008B,2026-06-17T11:58:31.831392,13.75977041,.00338609,82.9262,193.5557,213.7960,254.6254,0,U,21876,999,72314,.11886991E-3,.131E-5,0
SL-8 R/B,1992-020B,2026-06-17T18:43:20.494848,13.75548915,.0029691,82.9305,79.4170,20.9485,33.4577,0,U,21938,999,71489,.63513E-4,.77E-6,0
USA 81,1992-023A,2026-06-17T18:19:56.108640,14.32398319,.0002748,85.0074,73.6747,84.0257,276.1249,0,U,21949,999,10911,.46178E-4,.145E-5,0
COSMOS 2219,1992-076A,2026-06-17T09:40:04.909440,14.14099164,.00166095,71.0579,169.6209,43.8060,316.4377,0,U,22219,999,73247,.17053718E-3,.278E-5,0
SL-16 R/B,1992-076B,2026-06-17T19:32:31.709760,14.16872546,.0014673,71.0005,337.4601,297.8229,162.9061,0,U,22220,999,73601,.1376E-3,.228E-5,0
COSMOS 2221,1992-080A,2026-06-17T12:57:52.511040,14.96533739,.0013298,82.5030,183.4264,210.9421,149.1019,0,U,22236,999,79572,.94887E-4,.1106E-4,0
SL-16 R/B,1992-093B,2026-06-17T09:12:38.604096,14.15461119,.00039428,71.0197,154.9786,188.1315,171.9745,0,U,22285,999,72726,-.12463911E-3,-.291E-5,0
COSMOS 2228,1992-094A,2026-06-17T19:44:37.620096,14.97588599,.0016843,82.5174,141.4341,330.1174,29.9085,0,U,22286,999,79104,.13714E-3,.1632E-4,0
SL-16 R/B,1993-016B,2026-06-17T18:54:38.524896,14.15314547,.0010155,71.0085,4.9456,182.7070,177.4000,0,U,22566,999,71633,.14418E-3,.233E-5,0
COSMOS 2242,1993-024A,2026-06-17T12:21:36.587520,14.96904128,.00153386,82.5179,171.2292,335.1626,24.8856,0,U,22626,999,79532,.11163596E-3,.131E-4,0
SL-16 R/B,1993-059B,2026-06-17T10:03:50.296896,14.17248281,.00152099,70.9886,160.8140,53.4989,306.7533,0,U,22803,999,69366,-.19988878E-4,-.88E-6,0
ARIANE 40 R/B,1993-061H,2026-06-17T18:20:11.486112,14.32908163,.0010402,98.4819,235.6090,354.4306,5.6761,0,U,22830,999,70843,.66787E-4,.139E-5,0
COSMOS 2278,1994-023A,2026-06-17T19:30:16.910208,14.14398338,.0010621,71.0549,325.6157,242.5299,117.4744,0,U,23087,999,65896,.5868E-4,.65E-6,0
SL-16 R/B,1994-023B,2026-06-17T14:27:02.545056,14.15025572,.0002736,70.9993,221.0600,186.2744,173.8345,0,U,23088,999,66022,.14749E-3,.238E-5,0
SL-16 R/B,1994-074B,2026-06-17T15:07:43.414176,14.79502618,.0005157,97.6990,195.3329,251.5240,220.8461,0,U,23343,999,70202,.48072E-4,.31E-5,0
SL-16 R/B,1994-077B,2026-06-17T07:59:07.408896,14.15572187,.00029287,70.9809,142.8561,327.7854,32.3089,0,U,23405,999,63033,.78918868E-4,.107E-5,0
ARIANE 40+ R/B,1995-021B,2026-06-17T19:55:11.877312,14.39833702,.0006499,98.4412,238.8956,191.6720,287.6471,0,U,23561,999,63365,.79999E-4,.208E-5,0
SL-16 R/B,1995-058B,2026-06-17T18:26:40.431264,14.15508871,.0013798,71.0221,330.1376,319.6680,40.3419,0,U,23705,999,58201,.16959E-3,.284E-5,0
